NORAD_CAT_ID,OBJECT_NAME,OBJECT_TYPE,EPOCH,MEAN_MOTION,ECCENTRICITY,INCLINATION,RA_OF_ASC_NODE,ARG_OF_PERICENTER,MEAN_ANOMALY,BSTAR,MEAN_MOTION_DOT,MEAN_MOTION_DDOT,TLE_LINE0,TLE_LINE1,TLE_LINE2,SEMIMAJOR_AXIS,PERIOD,APOGEE,PERIGEE,DECAYED
52299.0,STARLINK-3759,PAYLOAD,2023-12-15 18:53:17,15.08836326,0.0001338,53.2158,157.3592,84.0976,276.0168,1.8514e-05,7e-08,0.0,0 STARLINK-3759,1 52299U 22041AQ  23349.78700784  .00000007  00000-0  18514-4 0  9998,2 52299  53.2158 157.3592 0001338  84.0976 276.0168 15.08836326 92704,6917.892,95.438,540.682,538.831,0.0
52299.0,STARLINK-3759,PAYLOAD,2023-12-16 18:44:04,15.08842443,0.0001341,53.216,152.8987,84.9123,275.2022,0.00011088,1.477e-05,0.0,0 STARLINK-3759,1 52299U 22041AQ  23350.78060240  .00001477  00000-0  11088-3 0  9996,2 52299  53.2160 152.8987 0001341  84.9123 275.2022 15.08842443 92855,6917.873,95.437,540.666,538.81,0.0
52299.0,STARLINK-3759,PAYLOAD,2023-12-17 13:48:42,15.08838718,0.0001309,53.2157,149.3309,89.1143,270.9999,3.6917e-05,3e-06,0.0,0 STARLINK-3759,1 52299U 22041AQ  23351.57548751  .00000300  00000-0  36917-4 0  9995,2 52299  53.2157 149.3309 0001309  89.1143 270.9999 15.08838718 91756,6917.884,95.438,540.655,538.844,0.0
52299.0,STARLINK-3759,PAYLOAD,2023-12-17 16:59:28,15.08841774,0.0001272,53.2152,148.7373,83.9032,276.2105,3.5448e-05,2.76e-06,0.0,0 STARLINK-3759,1 52299U 22041AQ  23351.70796593  .00000276  00000-0  35448-4 0  9999,2 52299  53.2152 148.7373 0001272  83.9032 276.2105 15.08841774 92994,6917.875,95.437,540.62,538.86,0.0
52299.0,STARLINK-3759,PAYLOAD,2023-12-18 13:39:28,15.08845273,0.0001282,53.2162,144.8689,96.8676,263.2462,6.6075e-05,7.64e-06,0.0,0 STARLINK-3759,1 52299U 22041AQ  23352.56908012  .00000764  00000-0  66075-4 0  9997,2 52299  53.2162 144.8689 0001282  96.8676 263.2462 15.08845273 91900,6917.864,95.437,540.616,538.842,0.0
52299.0,STARLINK-3759,PAYLOAD,2023-12-18 15:14:51,15.08847927,0.0001342,53.2162,144.5716,90.156,269.9586,3.6344e-05,2.91e-06,0.0,0 STARLINK-3759,1 52299U 22041AQ  23352.63531983  .00000291  00000-0  36344-4 0  9995,2 52299  53.2162 144.5716 0001342  90.1560 269.9586 15.08847927 91913,6917.856,95.437,540.65,538.793,0.0
52299.0,STARLINK-3759,PAYLOAD,2023-12-19 13:30:15,15.08842731,0.0001363,53.2171,140.4062,96.9712,263.1435,1.263e-05,-8.7e-07,0.0,0 STARLINK-3759,1 52299U 22041AQ  23353.56268202 -.00000087  00000-0  12630-4 0  9995,2 52299  53.2171 140.4062 0001363  96.9712 263.1435 15.08842731 92051,6917.872,95.437,540.68,538.794,0.0
52299.0,STARLINK-3759,PAYLOAD,2023-12-19 16:41:02,15.08841248,0.0001323,53.2167,139.8128,92.8558,267.2586,3.3137e-06,-2.35e-06,0.0,0 STARLINK-3759,1 52299U 22041AQ  23353.69516299 -.00000235  00000-0  33137-5 0  9992,2 52299  53.2167 139.8128 0001323  92.8558 267.2586 15.08841248 93291,6917.877,95.437,540.657,538.826,0.0
52299.0,STARLINK-3759,PAYLOAD,2023-12-20 13:21:03,15.08832513,0.0001493,53.2176,135.9507,108.5028,251.6126,-3.7783e-05,-8.89e-06,0.0,0 STARLINK-3759,1 52299U 22041AQ  23354.55629112 -.00000889  00000-0 -37783-4 0  9993,2 52299  53.2176 135.9507 0001493 108.5028 251.6126 15.08832513 92206,6917.903,95.438,540.801,538.735,0.0
52299.0,STARLINK-3759,PAYLOAD,2023-12-20 14:56:26,15.08835285,0.0001239,53.2159,135.6519,93.5789,266.5345,-6.3148e-05,-1.293e-05,0.0,0 STARLINK-3759,1 52299U 22041AQ  23354.62253094 -.00001293  00000-0 -63148-4 0  9997,2 52299  53.2159 135.6519 0001239  93.5789 266.5345 15.08835285 93435,6917.895,95.438,540.617,538.903,0.0
52299.0,STARLINK-3759,PAYLOAD,2023-12-21 14:47:13,15.08837624,0.0001253,53.2162,131.191,92.8466,267.2669,7.943e-05,9.76e-06,0.0,0 STARLINK-3759,1 52299U 22041AQ  23355.61612756  .00000976  00000-0  79430-4 0  9997,2 52299  53.2162 131.1910 0001253  92.8466 267.2669 15.08837624 92362,6917.888,95.438,540.619,538.886,0.0
52299.0,STARLINK-3759,PAYLOAD,2023-12-22 14:38:00,15.08840611,0.0001191,53.2165,126.7304,91.668,268.4449,4.2093e-05,3.82e-06,0.0,0 STARLINK-3759,1 52299U 22041AQ  23356.60973099  .00000382  00000-0  42093-4 0  9993,2 52299  53.2165 126.7304 0001191  91.6680 268.4449 15.08840611 92514,6917.879,95.438,540.567,538.92,0.0
52299.0,STARLINK-3759,PAYLOAD,2023-12-22 16:13:23,15.08841744,0.0001232,53.2166,126.4337,79.2144,280.8987,9.3189e-05,1.196e-05,0.0,0 STARLINK-3759,1 52299U 22041AQ  23356.67596918  .00001196  00000-0  93189-4 0  9997,2 52299  53.2166 126.4337 0001232  79.2144 280.8987 15.08841744 93740,6917.875,95.437,540.592,538.888,0.0
52299.0,STARLINK-3759,PAYLOAD,2023-12-23 14:28:48,15.08839978,0.0001631,53.2168,122.2722,55.5838,304.5308,1.3689e-05,-7e-07,0.0,0 STARLINK-3759,1 52299U 22041AQ  23357.60333645 -.00000070  00000-0  13689-4 0  9995,2 52299  53.2168 122.2722 0001631  55.5838 304.5308 15.08839978 92661,6917.88,95.438,540.874,538.617,0.0
52299.0,STARLINK-3759,PAYLOAD,2023-12-23 17:39:34,15.08840238,0.0001634,53.2176,121.6792,57.7139,302.4011,8.5198e-05,1.068e-05,0.0,0 STARLINK-3759,1 52299U 22041AQ  23357.73581091  .00001068  00000-0  85198-4 0  9990,2 52299  53.2176 121.6792 0001634  57.7139 302.4011 15.08840238 93908,6917.88,95.438,540.875,538.614,0.0
52299.0,STARLINK-3759,PAYLOAD,2023-12-24 07:58:02,15.08838709,0.0001417,53.2168,119.0016,65.695,294.419,6.3999e-06,-1.86e-06,0.0,0 STARLINK-3759,1 52299U 22041AQ  23358.33197696 -.00000186  00000-0  63999-5 0  9998,2 52299  53.2168 119.0016 0001417  65.6950 294.4190 15.08838709 93994,6917.884,95.438,540.73,538.769,0.0
52299.0,STARLINK-3759,PAYLOAD,2023-12-24 14:19:35,15.0884227,0.0001654,53.2161,117.8146,58.7638,301.3516,4.2571e-05,3.9e-06,0.0,0 STARLINK-3759,1 52299U 22041AQ  23358.59693374  .00000390  00000-0  42571-4 0  9998,2 52299  53.2161 117.8146 0001654  58.7638 301.3516 15.08842270 92814,6917.873,95.437,540.883,538.594,0.0
52299.0,STARLINK-3759,PAYLOAD,2023-12-24 15:54:57,15.08851233,0.0001608,53.2168,117.515,56.6143,303.5003,0.00012029,1.627e-05,0.0,0 STARLINK-3759,1 52299U 22041AQ  23358.66316618  .00001627  00000-0  12029-3 0  9997,2 52299  53.2168 117.5150 0001608  56.6143 303.5003 15.08851233 94041,6917.846,95.437,540.823,538.599,0.0
52299.0,STARLINK-3759,PAYLOAD,2023-12-25 07:48:49,15.08839332,0.0001075,53.2168,114.5425,90.0603,270.0513,3.6456e-05,2.92e-06,0.0,0 STARLINK-3759,1 52299U 22041AQ  23359.32557386  .00000292  00000-0  36456-4 0  9998,2 52299  53.2168 114.5425 0001075  90.0603 270.0513 15.08839332 94145,6917.882,95.438,540.491,539.004,0.0
52299.0,STARLINK-3759,PAYLOAD,2023-12-25 14:10:21,15.088454,0.0001458,53.2167,113.3528,78.3999,281.7157,1.9642e-05,2.5e-07,0.0,0 STARLINK-3759,1 52299U 22041AQ  23359.59053106  .00000025  00000-0  19642-4 0  9990,2 52299  53.2167 113.3528 0001458  78.3999 281.7157 15.08845400 92961,6917.864,95.437,540.738,538.72,0.0
52299.0,STARLINK-3759,PAYLOAD,2023-12-26 10:50:23,15.08837325,0.0001522,53.2168,109.4869,95.8923,264.2243,-2.8717e-05,-7.45e-06,0.0,0 STARLINK-3759,1 52299U 22041AQ  23360.45165825 -.00000745  00000-0 -28717-4 0  9993,2 52299  53.2168 109.4869 0001522  95.8923 264.2243 15.08837325 94319,6917.889,95.438,540.806,538.701,0.0
52299.0,STARLINK-3759,PAYLOAD,2023-12-26 14:01:08,15.08849794,0.0001223,53.2182,108.8889,97.2477,262.8654,3.279e-05,2.34e-06,0.0,0 STARLINK-3759,1 52299U 22041AQ  23360.58412830  .00000234  00000-0  32790-4 0  9995,2 52299  53.2182 108.8889 0001223  97.2477 262.8654 15.08849794 93118,6917.85,95.437,540.562,538.869,0.0
52299.0,STARLINK-3759,PAYLOAD,2023-12-26 17:11:55,15.08846583,0.0001302,53.2179,108.2919,114.756,245.3567,-3.6257e-05,-8.65e-06,0.0,0 STARLINK-3759,1 52299U 22041AQ  23360.71661199 -.00000865  00000-0 -36257-4 0  9998,2 52299  53.2179 108.2919 0001302 114.7560 245.3567 15.08846583 94357,6917.86,95.437,540.626,538.825,0.0
52299.0,STARLINK-3759,PAYLOAD,2023-12-27 13:51:56,15.08844164,0.0001501,53.2174,104.4311,94.8823,265.234,5.1259e-05,5.28e-06,0.0,0 STARLINK-3759,1 52299U 22041AQ  23361.57773156  .00000528  00000-0  51259-4 0  9993,2 52299  53.2174 104.4311 0001501  94.8823 265.2340 15.08844164 93269,6917.868,95.437,540.771,538.694,0.0
52299.0,STARLINK-3759,PAYLOAD,2023-12-28 12:07:20,15.08839458,0.0001441,53.2177,100.2702,97.2128,262.9028,5.6895e-05,6.18e-06,0.0,0 STARLINK-3759,1 52299U 22041AQ  23362.50509653  .00000618  00000-0  56895-4 0  9997,2 52299  53.2177 100.2702 0001441  97.2128 262.9028 15.08839458 94626,6917.882,95.438,540.744,538.75,0.0
52299.0,STARLINK-3759,PAYLOAD,2023-12-28 13:42:43,15.08840405,0.0001369,53.218,99.9721,88.4815,271.6334,7.4176e-05,8.93e-06,0.0,0 STARLINK-3759,1 52299U 22041AQ  23362.57133556  .00000893  00000-0  74176-4 0  9996,2 52299  53.2180  99.9721 0001369  88.4815 271.6334 15.08840405 93416,6917.879,95.438,540.691,538.797,0.0
52299.0,STARLINK-3759,PAYLOAD,2023-12-29 11:58:07,15.08837034,0.0001523,53.2177,95.8083,97.281,262.8355,-1.4474e-05,-5.18e-06,0.0,0 STARLINK-3759,1 52299U 22041AQ  23363.49870208 -.00000518  00000-0 -14474-4 0  9991,2 52299  53.2177  95.8083 0001523  97.2810 262.8355 15.08837034 94772,6917.889,95.438,540.808,538.701,0.0
52299.0,STARLINK-3759,PAYLOAD,2023-12-30 13:24:17,15.08840182,0.0001448,53.2175,91.0503,87.3397,272.7761,3.5068e-05,2.7e-06,0.0,0 STARLINK-3759,1 52299U 22041AQ  23364.55854087  .00000270  00000-0  35068-4 0  9991,2 52299  53.2175  91.0503 0001448  87.3397 272.7761 15.08840182 93713,6917.88,95.438,540.747,538.743,0.0
52299.0,STARLINK-3759,PAYLOAD,2023-12-30 14:59:40,15.08845099,0.0001622,53.2177,90.7491,90.0895,270.0283,-2.4169e-05,-6.73e-06,0.0,0 STARLINK-3759,1 52299U 22041AQ  23364.62477936 -.00000673  00000-0 -24169-4 0  9992,2 52299  53.2177  90.7491 0001622  90.0895 270.0283 15.08845099 94943,6917.865,95.437,540.852,538.608,0.0
52299.0,STARLINK-3759,PAYLOAD,2023-12-31 11:39:42,15.08836089,0.0001551,53.2181,86.8874,85.6505,274.4664,2.0785e-05,4.3e-07,0.0,0 STARLINK-3759,1 52299U 22041AQ  23365.48590696  .00000043  00000-0  20785-4 0  9995,2 52299  53.2181  86.8874 0001551  85.6505 274.4664 15.08836089 95073,6917.892,95.438,540.83,538.684,0.0
